{
  "norad_id": 41882,
  "name": "FENGYUN 4A",
  "history": [
    {
      "epoch": "2026-04-11T20:31:38.397792Z",
      "apogee_km": 35818.55434596446,
      "perigee_km": 35752.71140292852,
      "latitude_deg": -0.3900491469009158,
      "longitude_deg": 123.83371724271086,
      "height_km": 35765.154406285874,
      "semi_major_axis_km": 42163.769874446494,
      "eccentricity": 0.0007808,
      "inclination_deg": 2.1537,
      "raan_deg": 80.9425,
      "arg_perigee_deg": 138.3353,
      "mean_anomaly_deg": 52.4702,
      "mean_motion_rev_day": 1.00275217
    },
    {
      "epoch": "2026-04-13T06:09:11.337408Z",
      "apogee_km": 35818.90524770644,
      "perigee_km": 35752.83256389182,
      "latitude_deg": -0.866832417914783,
      "longitude_deg": 123.76658164826999,
      "height_km": 35816.92729198036,
      "semi_major_axis_km": 42164.00590579913,
      "eccentricity": 0.00078352,
      "inclination_deg": 2.1572,
      "raan_deg": 80.9256,
      "arg_perigee_deg": 138.3578,
      "mean_anomaly_deg": 198.2476,
      "mean_motion_rev_day": 1.00274375
    },
    {
      "epoch": "2026-04-14T19:16:38.730720Z",
      "apogee_km": 35820.23150435252,
      "perigee_km": 35752.321499965954,
      "latitude_deg": 0.2006269323217877,
      "longitude_deg": 123.84278933463683,
      "height_km": 35758.15005768858,
      "semi_major_axis_km": 42164.413502159245,
      "eccentricity": 0.0008053,
      "inclination_deg": 2.1614,
      "raan_deg": 80.9119,
      "arg_perigee_deg": 139.2737,
      "mean_anomaly_deg": 35.7405,
      "mean_motion_rev_day": 1.00272921
    },
    {
      "epoch": "2026-04-15T19:45:26.754048Z",
      "apogee_km": 35819.977538275794,
      "perigee_km": 35752.71675316654,
      "latitude_deg": -0.1078825974356011,
      "longitude_deg": 123.85315276607545,
      "height_km": 35761.773754119225,
      "semi_major_axis_km": 42164.484145721166,
      "eccentricity": 0.0007976,
      "inclination_deg": 2.1634,
      "raan_deg": 80.9116,
      "arg_perigee_deg": 138.9004,
      "mean_anomaly_deg": 44.3275,
      "mean_motion_rev_day": 1.00272669
    },
    {
      "epoch": "2026-04-16T19:43:00.343200Z",
      "apogee_km": 35820.43535753559,
      "perigee_km": 35752.64299118247,
      "latitude_deg": -0.12437323708186085,
      "longitude_deg": 123.85352525496904,
      "height_km": 35761.94055955033,
      "semi_major_axis_km": 42164.67617435903,
      "eccentricity": 0.0008039,
      "inclination_deg": 2.166,
      "raan_deg": 80.9012,
      "arg_perigee_deg": 138.8533,
      "mean_anomaly_deg": 44.7596,
      "mean_motion_rev_day": 1.00271984
    },
    {
      "epoch": "2026-04-17T09:24:18.977184Z",
      "apogee_km": 35820.70951264251,
      "perigee_km": 35752.574602867506,
      "latitude_deg": 1.0439267807054375,
      "longitude_deg": 123.68444287941416,
      "height_km": 35797.450160483946,
      "semi_major_axis_km": 42164.77905775501,
      "eccentricity": 0.00080796,
      "inclination_deg": 2.1674,
      "raan_deg": 80.8946,
      "arg_perigee_deg": 139.1304,
      "mean_anomaly_deg": 250.3791,
      "mean_motion_rev_day": 1.00271617
    },
    {
      "epoch": "2026-04-18T21:46:06.304224Z",
      "apogee_km": 35821.49323293319,
      "perigee_km": 35752.367821229294,
      "latitude_deg": -1.2745916544989346,
      "longitude_deg": 123.85932687739404,
      "height_km": 35778.52606727544,
      "semi_major_axis_km": 42165.06752708124,
      "eccentricity": 0.0008197,
      "inclination_deg": 2.1714,
      "raan_deg": 80.8748,
      "arg_perigee_deg": 140.0504,
      "mean_anomaly_deg": 76.4139,
      "mean_motion_rev_day": 1.00270588
    }
  ]
}